GLOBALSTAR M024         
1 25883U 99043A   24219.60184431 -.00000003  00000+0  21808-2 0  9990
2 25883  52.0053  10.4325 0000764 334.4788 106.7278 11.10160905 79924
GLOBALSTAR M027         
1 25884U 99043B   24219.60293990 -.00000051  00000+0  46873-3 0  9995
2 25884  52.0215  79.4992 0020684 202.0907 157.8996 11.04369389106482
GLOBALSTAR M054         
1 25885U 99043C   24219.59341687 -.00000042  00000+0  73938-3 0  9993
2 25885  52.0111 259.6174 0004884 359.6307 163.4971 11.39211510 83197
GLOBALSTAR M053         
1 25886U 99043D   24219.32598743 -.00000075  00000+0 -19350-3 0  9997
2 25886  51.9953 189.8807 0003698 272.8164 233.4498 11.27657402 83920
GLOBALSTAR M058         
1 25907U 99049A   24219.49760538 -.00000079  00000+0  74548-4 0  9992
2 25907  51.9907 229.4691 0002130  30.2478 329.8480 11.93179688503970
GLOBALSTAR M050         
1 25908U 99049B   24219.49863966 -.00000120  00000+0 -36052-3 0  9997
2 25908  51.9968 260.6539 0009280 126.0200  18.6079 12.07437351110179
GLOBALSTAR M033         
1 25909U 99049C   24219.57091972 -.00000098  00000+0 -58765-4 0  9997
2 25909  51.9905 154.0190 0012939 340.9629  19.0733 12.20274431497338
GLOBALSTAR M055         
1 25910U 99049D   24219.29631715 -.00000090  00000+0  36716-4 0  9996
2 25910  51.9997 180.8622 0006765 197.8447 162.2168 12.29405691129557
